[{"OBJECT_NAME":"SL-14 R/B","OBJECT_ID":"1986-006B","EPOCH":"2026-03-11T21:01:15.700224","MEAN_MOTION":14.86818128,"ECCENTRICITY":0.0075057,"INCLINATION":82.5236,"RA_OF_ASC_NODE":257.679,"ARG_OF_PERICENTER":265.3927,"MEAN_ANOMALY":93.8714,"EPHEMERIS_TYPE":0,"CLASSIFICATION_TYPE":"U","NORAD_CAT_ID":16496,"ELEMENT_SET_NO":999,"REV_AT_EPOCH":14953,"BSTAR":7.8222e-5,"MEAN_MOTION_DOT":7.59e-6,"MEAN_MOTION_DDOT":0},{"OBJECT_NAME":"COSMOS 1743","OBJECT_ID":"1986-034A","EPOCH":"2026-03-11T10:33:11.415744","MEAN_MOTION":15.58688651,"ECCENTRICITY":0.0001475,"INCLINATION":82.5296,"RA_OF_ASC_NODE":71.994,"ARG_OF_PERICENTER":275.9699,"MEAN_ANOMALY":84.1389,"EPHEMERIS_TYPE":0,"CLASSIFICATION_TYPE":"U","NORAD_CAT_ID":16719,"ELEMENT_SET_NO":999,"REV_AT_EPOCH":18052,"BSTAR":0.00052491,"MEAN_MOTION_DOT":0.000405,"MEAN_MOTION_DDOT":0},{"OBJECT_NAME":"SL-14 R/B","OBJECT_ID":"1986-046B","EPOCH":"2026-03-11T11:47:19.896000","MEAN_MOTION":14.85592274,"ECCENTRICITY":0.002208,"INCLINATION":82.4784,"RA_OF_ASC_NODE":78.479,"ARG_OF_PERICENTER":219.1346,"MEAN_ANOMALY":140.8274,"EPHEMERIS_TYPE":0,"CLASSIFICATION_TYPE":"U","NORAD_CAT_ID":16792,"ELEMENT_SET_NO":999,"REV_AT_EPOCH":12667,"BSTAR":6.2494e-5,"MEAN_MOTION_DOT":5.67e-6,"MEAN_MOTION_DDOT":0},{"OBJECT_NAME":"SL-14 R/B","OBJECT_ID":"1986-055B","EPOCH":"2026-03-11T15:23:05.457696","MEAN_MOTION":14.85644586,"ECCENTRICITY":0.0018013,"INCLINATION":82.5198,"RA_OF_ASC_NODE":124.8401,"ARG_OF_PERICENTER":329.8581,"MEAN_ANOMALY":196.3196,"EPHEMERIS_TYPE":0,"CLASSIFICATION_TYPE":"U","NORAD_CAT_ID":16882,"ELEMENT_SET_NO":999,"REV_AT_EPOCH":11965,"BSTAR":5.3763e-5,"MEAN_MOTION_DOT":4.91e-6,"MEAN_MOTION_DDOT":0},{"OBJECT_NAME":"AJISAI (EGS)","OBJECT_ID":"1986-061A","EPOCH":"2026-03-11T19:49:40.207584","MEAN_MOTION":12.44515646,"ECCENTRICITY":0.0011277,"INCLINATION":50.008,"RA_OF_ASC_NODE":86.7777,"ARG_OF_PERICENTER":292.5359,"MEAN_ANOMALY":238.4968,"EPHEMERIS_TYPE":0,"CLASSIFICATION_TYPE":"U","NORAD_CAT_ID":16908,"ELEMENT_SET_NO":999,"REV_AT_EPOCH":46826,"BSTAR":-3.4626e-5,"MEAN_MOTION_DOT":-1.02e-6,"MEAN_MOTION_DDOT":0},{"OBJECT_NAME":"SL-14 R/B","OBJECT_ID":"1987-024B","EPOCH":"2026-03-11T19:02:18.312000","MEAN_MOTION":14.861342,"ECCENTRICITY":0.0016722,"INCLINATION":82.5245,"RA_OF_ASC_NODE":90.786,"ARG_OF_PERICENTER":252.3333,"MEAN_ANOMALY":107.6058,"EPHEMERIS_TYPE":0,"CLASSIFICATION_TYPE":"U","NORAD_CAT_ID":17567,"ELEMENT_SET_NO":999,"REV_AT_EPOCH":8844,"BSTAR":5.8764e-5,"MEAN_MOTION_DOT":5.4e-6,"MEAN_MOTION_DDOT":0},{"OBJECT_NAME":"COSMOS 1833","OBJECT_ID":"1987-027A","EPOCH":"2026-03-11T20:13:02.213472","MEAN_MOTION":14.13054234,"ECCENTRICITY":0.0024165,"INCLINATION":70.9219,"RA_OF_ASC_NODE":321.4949,"ARG_OF_PERICENTER":211.5131,"MEAN_ANOMALY":148.4544,"EPHEMERIS_TYPE":0,"CLASSIFICATION_TYPE":"U","NORAD_CAT_ID":17589,"ELEMENT_SET_NO":999,"REV_AT_EPOCH":1062,"BSTAR":-8.0513e-5,"MEAN_MOTION_DOT":-1.99e-6,"MEAN_MOTION_DDOT":0},{"OBJECT_NAME":"SL-16 R/B","OBJECT_ID":"1987-027B","EPOCH":"2026-03-11T21:07:47.037792","MEAN_MOTION":14.17166526,"ECCENTRICITY":0.0003277,"INCLINATION":70.9997,"RA_OF_ASC_NODE":271.8785,"ARG_OF_PERICENTER":137.9978,"MEAN_ANOMALY":222.1397,"EPHEMERIS_TYPE":0,"CLASSIFICATION_TYPE":"U","NORAD_CAT_ID":17590,"ELEMENT_SET_NO":999,"REV_AT_EPOCH":1565,"BSTAR":4.3049e-5,"MEAN_MOTION_DOT":3.9e-7,"MEAN_MOTION_DDOT":0},{"OBJECT_NAME":"SL-14 R/B","OBJECT_ID":"1987-038B","EPOCH":"2026-03-11T20:33:37.982304","MEAN_MOTION":14.85371112,"ECCENTRICITY":0.0019852,"INCLINATION":82.4997,"RA_OF_ASC_NODE":294.7663,"ARG_OF_PERICENTER":153.4889,"MEAN_ANOMALY":206.7347,"EPHEMERIS_TYPE":0,"CLASSIFICATION_TYPE":"U","NORAD_CAT_ID":17912,"ELEMENT_SET_NO":999,"REV_AT_EPOCH":7955,"BSTAR":4.8198e-5,"MEAN_MOTION_DOT":4.4e-6,"MEAN_MOTION_DDOT":0},{"OBJECT_NAME":"COSMOS 1844","OBJECT_ID":"1987-041A","EPOCH":"2026-03-11T21:00:23.662368","MEAN_MOTION":14.14551691,"ECCENTRICITY":0.0030146,"INCLINATION":70.9,"RA_OF_ASC_NODE":29.5648,"ARG_OF_PERICENTER":14.5953,"MEAN_ANOMALY":345.6032,"EPHEMERIS_TYPE":0,"CLASSIFICATION_TYPE":"U","NORAD_CAT_ID":17973,"ELEMENT_SET_NO":999,"REV_AT_EPOCH":389,"BSTAR":-5.3432e-5,"MEAN_MOTION_DOT":-1.51e-6,"MEAN_MOTION_DDOT":0},{"OBJECT_NAME":"SL-14 R/B","OBJECT_ID":"1987-055B","EPOCH":"2026-03-11T19:59:50.665056","MEAN_MOTION":14.85632025,"ECCENTRICITY":0.0020987,"INCLINATION":82.503,"RA_OF_ASC_NODE":347.0118,"ARG_OF_PERICENTER":10.8498,"MEAN_ANOMALY":349.3166,"EPHEMERIS_TYPE":0,"CLASSIFICATION_TYPE":"U","NORAD_CAT_ID":18153,"ELEMENT_SET_NO":999,"REV_AT_EPOCH":7025,"BSTAR":6.5133e-5,"MEAN_MOTION_DOT":5.9e-6,"MEAN_MOTION_DDOT":0},{"OBJECT_NAME":"COSMOS 1867","OBJECT_ID":"1987-060A","EPOCH":"2026-03-11T21:16:27.132096","MEAN_MOTION":14.3150343,"ECCENTRICITY":0.0014514,"INCLINATION":65.011,"RA_OF_ASC_NODE":300.5539,"ARG_OF_PERICENTER":278.7966,"MEAN_ANOMALY":81.1475,"EPHEMERIS_TYPE":0,"CLASSIFICATION_TYPE":"U","NORAD_CAT_ID":18187,"ELEMENT_SET_NO":999,"REV_AT_EPOCH":2025,"BSTAR":2.6412e-5,"MEAN_MOTION_DOT":-3.0e-7,"MEAN_MOTION_DDOT":0},{"OBJECT_NAME":"SL-14 R/B","OBJECT_ID":"1988-001B","EPOCH":"2026-03-11T19:53:18.514464","MEAN_MOTION":14.85530559,"ECCENTRICITY":0.0016966,"INCLINATION":82.5156,"RA_OF_ASC_NODE":193.3486,"ARG_OF_PERICENTER":228.1562,"MEAN_ANOMALY":131.8207,"EPHEMERIS_TYPE":0,"CLASSIFICATION_TYPE":"U","NORAD_CAT_ID":18749,"ELEMENT_SET_NO":999,"REV_AT_EPOCH":4234,"BSTAR":7.1607e-5,"MEAN_MOTION_DOT":6.44e-6,"MEAN_MOTION_DDOT":0},{"OBJECT_NAME":"COSMOS 1933","OBJECT_ID":"1988-020A","EPOCH":"2026-03-11T20:00:21.882240","MEAN_MOTION":15.18005778,"ECCENTRICITY":0.0004108,"INCLINATION":82.5104,"RA_OF_ASC_NODE":248.79,"ARG_OF_PERICENTER":174.2005,"MEAN_ANOMALY":185.9277,"EPHEMERIS_TYPE":0,"CLASSIFICATION_TYPE":"U","NORAD_CAT_ID":18958,"ELEMENT_SET_NO":999,"REV_AT_EPOCH":5055,"BSTAR":0.00026209,"MEAN_MOTION_DOT":5.359e-5,"MEAN_MOTION_DDOT":0},{"OBJECT_NAME":"SL-3 R/B","OBJECT_ID":"1988-032B","EPOCH":"2026-03-11T21:43:20.952768","MEAN_MOTION":15.19938075,"ECCENTRICITY":0.0024553,"INCLINATION":97.5195,"RA_OF_ASC_NODE":54.1484,"ARG_OF_PERICENTER":223.329,"MEAN_ANOMALY":136.6015,"EPHEMERIS_TYPE":0,"CLASSIFICATION_TYPE":"U","NORAD_CAT_ID":19046,"ELEMENT_SET_NO":999,"REV_AT_EPOCH":5244,"BSTAR":0.00027127,"MEAN_MOTION_DOT":5.807e-5,"MEAN_MOTION_DDOT":0},{"OBJECT_NAME":"SL-16 R/B","OBJECT_ID":"1988-039B","EPOCH":"2026-03-11T09:20:57.996096","MEAN_MOTION":14.1961562,"ECCENTRICITY":0.0022884,"INCLINATION":71.0136,"RA_OF_ASC_NODE":64.9528,"ARG_OF_PERICENTER":331.9159,"MEAN_ANOMALY":28.073,"EPHEMERIS_TYPE":0,"CLASSIFICATION_TYPE":"U","NORAD_CAT_ID":19120,"ELEMENT_SET_NO":999,"REV_AT_EPOCH":95862,"BSTAR":4.4683e-5,"MEAN_MOTION_DOT":4.6e-7,"MEAN_MOTION_DDOT":0},{"OBJECT_NAME":"COSMOS 1953","OBJECT_ID":"1988-050A","EPOCH":"2026-03-11T17:17:28.807584","MEAN_MOTION":15.28565914,"ECCENTRICITY":0.0012555,"INCLINATION":82.5103,"RA_OF_ASC_NODE":156.2051,"ARG_OF_PERICENTER":116.2836,"MEAN_ANOMALY":243.9695,"EPHEMERIS_TYPE":0,"CLASSIFICATION_TYPE":"U","NORAD_CAT_ID":19210,"ELEMENT_SET_NO":999,"REV_AT_EPOCH":3809,"BSTAR":0.00032719,"MEAN_MOTION_DOT":9.145e-5,"MEAN_MOTION_DDOT":0}]
